{"type":"FeatureCollection","generated_at":"2026-07-28T16:18:31.836Z","source_url":"https://gaia.nullschool.net/data/firms/current/current-firms.epak","source":"VIIRS NRT active fire data via FIRMS / NASA, supplied by Earth Nullschool","area_of_interest":{"name":"Sant Francesc","source_url":"https://www.google.com/maps/d/kml?mid=1tqpTAqEbdQr_F5Pq8YIQU8QlpNsNeXk&forcekml=1","geometry":{"type":"Polygon","coordinates":[[[-0.248715,39.9490193],[-0.2482537,39.9480076],[-0.2475885,39.9477115],[-0.2479533,39.9468725],[-0.2487043,39.9459102],[-0.2476636,39.9453426],[-0.2473203,39.945721],[-0.2469448,39.9471111],[-0.2462152,39.9469959],[-0.2461187,39.9474565],[-0.2452925,39.9472344],[-0.2451638,39.9470288],[-0.244402,39.9468479],[-0.2443806,39.9473989],[-0.2447776,39.9475963],[-0.245668,39.9479171],[-0.2447346,39.9489535],[-0.2453355,39.9492167],[-0.2466444,39.9480569],[-0.2472988,39.9484846],[-0.2461187,39.9497759],[-0.248715,39.9490193]]]}},"local_extent":{"west":-0.42,"south":39.78,"east":-0.08,"north":40.11},"detections_inside_area_of_interest":0,"features":[{"type":"Feature","geometry":{"type":"Point","coordinates":[-0.32499998807907104,39.90999984741211]},"properties":{"detected_at":"2026-07-27T14:18:00.000Z","frp_mw":9.63,"inside_area_of_interest":false}},{"type":"Feature","geometry":{"type":"Point","coordinates":[-0.3240000009536743,39.904998779296875]},"properties":{"detected_at":"2026-07-27T14:18:00.000Z","frp_mw":6.73,"inside_area_of_interest":false}},{"type":"Feature","geometry":{"type":"Point","coordinates":[-0.32199999690055847,39.9119987487793]},"properties":{"detected_at":"2026-07-27T14:18:00.000Z","frp_mw":9.75,"inside_area_of_interest":false}},{"type":"Feature","geometry":{"type":"Point","coordinates":[-0.3160000145435333,39.90299987792969]},"properties":{"detected_at":"2026-07-27T14:18:00.000Z","frp_mw":9.79,"inside_area_of_interest":false}},{"type":"Feature","geometry":{"type":"Point","coordinates":[-0.3140000104904175,39.904998779296875]},"properties":{"detected_at":"2026-07-27T14:18:00.000Z","frp_mw":6.73,"inside_area_of_interest":false}},{"type":"Feature","geometry":{"type":"Point","coordinates":[-0.3050000071525574,39.90299987792969]},"properties":{"detected_at":"2026-07-27T14:18:00.000Z","frp_mw":9.79,"inside_area_of_interest":false}},{"type":"Feature","geometry":{"type":"Point","coordinates":[-0.30300000309944153,39.904998779296875]},"properties":{"detected_at":"2026-07-27T14:18:00.000Z","frp_mw":14.9,"inside_area_of_interest":false}},{"type":"Feature","geometry":{"type":"Point","coordinates":[-0.2980000078678131,39.94599914550781]},"properties":{"detected_at":"2026-07-27T14:18:00.000Z","frp_mw":19.41,"inside_area_of_interest":false}},{"type":"Feature","geometry":{"type":"Point","coordinates":[-0.296999990940094,39.948001861572266]},"properties":{"detected_at":"2026-07-27T14:18:00.000Z","frp_mw":33.26,"inside_area_of_interest":false}},{"type":"Feature","geometry":{"type":"Point","coordinates":[-0.2939999997615814,39.90299987792969]},"properties":{"detected_at":"2026-07-27T14:18:00.000Z","frp_mw":21.93,"inside_area_of_interest":false}},{"type":"Feature","geometry":{"type":"Point","coordinates":[-0.2930000126361847,39.86000061035156]},"properties":{"detected_at":"2026-07-27T14:18:00.000Z","frp_mw":57.25,"inside_area_of_interest":false}},{"type":"Feature","geometry":{"type":"Point","coordinates":[-0.2919999957084656,39.904998779296875]},"properties":{"detected_at":"2026-07-27T14:18:00.000Z","frp_mw":14.9,"inside_area_of_interest":false}},{"type":"Feature","geometry":{"type":"Point","coordinates":[-0.2919999957084656,39.85900115966797]},"properties":{"detected_at":"2026-07-27T14:18:00.000Z","frp_mw":30.48,"inside_area_of_interest":false}},{"type":"Feature","geometry":{"type":"Point","coordinates":[-0.2919999957084656,39.94599914550781]},"properties":{"detected_at":"2026-07-27T14:18:00.000Z","frp_mw":34.53,"inside_area_of_interest":false}},{"type":"Feature","geometry":{"type":"Point","coordinates":[-0.29100000858306885,39.93899917602539]},"properties":{"detected_at":"2026-07-27T14:18:00.000Z","frp_mw":34.53,"inside_area_of_interest":false}},{"type":"Feature","geometry":{"type":"Point","coordinates":[-0.29100000858306885,39.867000579833984]},"properties":{"detected_at":"2026-07-27T14:18:00.000Z","frp_mw":11.73,"inside_area_of_interest":false}},{"type":"Feature","geometry":{"type":"Point","coordinates":[-0.28999999165534973,39.941001892089844]},"properties":{"detected_at":"2026-07-27T14:18:00.000Z","frp_mw":33.26,"inside_area_of_interest":false}},{"type":"Feature","geometry":{"type":"Point","coordinates":[-0.28999999165534973,39.948001861572266]},"properties":{"detected_at":"2026-07-27T14:18:00.000Z","frp_mw":33.26,"inside_area_of_interest":false}},{"type":"Feature","geometry":{"type":"Point","coordinates":[-0.28299999237060547,39.94599914550781]},"properties":{"detected_at":"2026-07-27T14:18:00.000Z","frp_mw":34.53,"inside_area_of_interest":false}},{"type":"Feature","geometry":{"type":"Point","coordinates":[-0.28299999237060547,39.93899917602539]},"properties":{"detected_at":"2026-07-27T14:18:00.000Z","frp_mw":34.53,"inside_area_of_interest":false}},{"type":"Feature","geometry":{"type":"Point","coordinates":[-0.28200000524520874,39.867000579833984]},"properties":{"detected_at":"2026-07-27T14:18:00.000Z","frp_mw":13.47,"inside_area_of_interest":false}},{"type":"Feature","geometry":{"type":"Point","coordinates":[-0.28200000524520874,39.86000061035156]},"properties":{"detected_at":"2026-07-27T14:18:00.000Z","frp_mw":103.41,"inside_area_of_interest":false}},{"type":"Feature","geometry":{"type":"Point","coordinates":[-0.2800000011920929,39.941001892089844]},"properties":{"detected_at":"2026-07-27T14:18:00.000Z","frp_mw":88.02,"inside_area_of_interest":false}},{"type":"Feature","geometry":{"type":"Point","coordinates":[-0.27900001406669617,39.85900115966797]},"properties":{"detected_at":"2026-07-27T14:18:00.000Z","frp_mw":30.48,"inside_area_of_interest":false}},{"type":"Feature","geometry":{"type":"Point","coordinates":[-0.3179999887943268,39.904998779296875]},"properties":{"detected_at":"2026-07-28T00:56:00.000Z","frp_mw":2.28,"inside_area_of_interest":false}},{"type":"Feature","geometry":{"type":"Point","coordinates":[-0.28999999165534973,39.94900131225586]},"properties":{"detected_at":"2026-07-28T00:56:00.000Z","frp_mw":5.55,"inside_area_of_interest":false}},{"type":"Feature","geometry":{"type":"Point","coordinates":[-0.2809999883174896,39.94900131225586]},"properties":{"detected_at":"2026-07-28T00:56:00.000Z","frp_mw":4.85,"inside_area_of_interest":false}},{"type":"Feature","geometry":{"type":"Point","coordinates":[-0.32600000500679016,39.91999816894531]},"properties":{"detected_at":"2026-07-28T01:13:00.000Z","frp_mw":1.04,"inside_area_of_interest":false}},{"type":"Feature","geometry":{"type":"Point","coordinates":[-0.32600000500679016,39.90399932861328]},"properties":{"detected_at":"2026-07-28T01:13:00.000Z","frp_mw":1.45,"inside_area_of_interest":false}},{"type":"Feature","geometry":{"type":"Point","coordinates":[-0.3240000009536743,39.900001525878906]},"properties":{"detected_at":"2026-07-28T01:13:00.000Z","frp_mw":1.18,"inside_area_of_interest":false}},{"type":"Feature","geometry":{"type":"Point","coordinates":[-0.32100000977516174,39.90399932861328]},"properties":{"detected_at":"2026-07-28T01:13:00.000Z","frp_mw":1.45,"inside_area_of_interest":false}},{"type":"Feature","geometry":{"type":"Point","coordinates":[-0.3190000057220459,39.900001525878906]},"properties":{"detected_at":"2026-07-28T01:13:00.000Z","frp_mw":1.18,"inside_area_of_interest":false}},{"type":"Feature","geometry":{"type":"Point","coordinates":[-0.31700000166893005,39.90399932861328]},"properties":{"detected_at":"2026-07-28T01:13:00.000Z","frp_mw":1.82,"inside_area_of_interest":false}},{"type":"Feature","geometry":{"type":"Point","coordinates":[-0.31299999356269836,39.90399932861328]},"properties":{"detected_at":"2026-07-28T01:13:00.000Z","frp_mw":1.82,"inside_area_of_interest":false}},{"type":"Feature","geometry":{"type":"Point","coordinates":[-0.2980000078678131,39.90299987792969]},"properties":{"detected_at":"2026-07-28T01:13:00.000Z","frp_mw":1.03,"inside_area_of_interest":false}},{"type":"Feature","geometry":{"type":"Point","coordinates":[-0.2939999997615814,39.90299987792969]},"properties":{"detected_at":"2026-07-28T01:13:00.000Z","frp_mw":1.54,"inside_area_of_interest":false}},{"type":"Feature","geometry":{"type":"Point","coordinates":[-0.2930000126361847,39.88199996948242]},"properties":{"detected_at":"2026-07-28T01:13:00.000Z","frp_mw":0.97,"inside_area_of_interest":false}},{"type":"Feature","geometry":{"type":"Point","coordinates":[-0.2919999957084656,39.88100051879883]},"properties":{"detected_at":"2026-07-28T01:13:00.000Z","frp_mw":0.72,"inside_area_of_interest":false}},{"type":"Feature","geometry":{"type":"Point","coordinates":[-0.29100000858306885,39.95000076293945]},"properties":{"detected_at":"2026-07-28T01:13:00.000Z","frp_mw":6.13,"inside_area_of_interest":false}},{"type":"Feature","geometry":{"type":"Point","coordinates":[-0.28600001335144043,39.95000076293945]},"properties":{"detected_at":"2026-07-28T01:13:00.000Z","frp_mw":6.13,"inside_area_of_interest":false}},{"type":"Feature","geometry":{"type":"Point","coordinates":[-0.28200000524520874,39.95000076293945]},"properties":{"detected_at":"2026-07-28T01:13:00.000Z","frp_mw":6.66,"inside_area_of_interest":false}},{"type":"Feature","geometry":{"type":"Point","coordinates":[-0.27000001072883606,39.9010009765625]},"properties":{"detected_at":"2026-07-28T01:13:00.000Z","frp_mw":0.9,"inside_area_of_interest":false}},{"type":"Feature","geometry":{"type":"Point","coordinates":[-0.26600000262260437,39.9010009765625]},"properties":{"detected_at":"2026-07-28T01:13:00.000Z","frp_mw":0.9,"inside_area_of_interest":false}},{"type":"Feature","geometry":{"type":"Point","coordinates":[-0.23999999463558197,39.9370002746582]},"properties":{"detected_at":"2026-07-28T01:13:00.000Z","frp_mw":0.9,"inside_area_of_interest":false}},{"type":"Feature","geometry":{"type":"Point","coordinates":[-0.328000009059906,39.91600036621094]},"properties":{"detected_at":"2026-07-28T02:36:00.000Z","frp_mw":1.36,"inside_area_of_interest":false}},{"type":"Feature","geometry":{"type":"Point","coordinates":[-0.32600000500679016,39.91999816894531]},"properties":{"detected_at":"2026-07-28T02:36:00.000Z","frp_mw":1.36,"inside_area_of_interest":false}},{"type":"Feature","geometry":{"type":"Point","coordinates":[-0.32499998807907104,39.9010009765625]},"properties":{"detected_at":"2026-07-28T02:36:00.000Z","frp_mw":2.23,"inside_area_of_interest":false}},{"type":"Feature","geometry":{"type":"Point","coordinates":[-0.32499998807907104,39.915000915527344]},"properties":{"detected_at":"2026-07-28T02:36:00.000Z","frp_mw":1.28,"inside_area_of_interest":false}},{"type":"Feature","geometry":{"type":"Point","coordinates":[-0.3199999928474426,39.900001525878906]},"properties":{"detected_at":"2026-07-28T02:36:00.000Z","frp_mw":5.4,"inside_area_of_interest":false}},{"type":"Feature","geometry":{"type":"Point","coordinates":[-0.3179999887943268,39.90399932861328]},"properties":{"detected_at":"2026-07-28T02:36:00.000Z","frp_mw":5.51,"inside_area_of_interest":false}},{"type":"Feature","geometry":{"type":"Point","coordinates":[-0.3149999976158142,39.89899826049805]},"properties":{"detected_at":"2026-07-28T02:36:00.000Z","frp_mw":5.4,"inside_area_of_interest":false}},{"type":"Feature","geometry":{"type":"Point","coordinates":[-0.3140000104904175,39.90299987792969]},"properties":{"detected_at":"2026-07-28T02:36:00.000Z","frp_mw":5.4,"inside_area_of_interest":false}},{"type":"Feature","geometry":{"type":"Point","coordinates":[-0.31200000643730164,39.90299987792969]},"properties":{"detected_at":"2026-07-28T02:36:00.000Z","frp_mw":6.32,"inside_area_of_interest":false}},{"type":"Feature","geometry":{"type":"Point","coordinates":[-0.296999990940094,39.90399932861328]},"properties":{"detected_at":"2026-07-28T02:36:00.000Z","frp_mw":2.31,"inside_area_of_interest":false}},{"type":"Feature","geometry":{"type":"Point","coordinates":[-0.296999990940094,39.900001525878906]},"properties":{"detected_at":"2026-07-28T02:36:00.000Z","frp_mw":1.61,"inside_area_of_interest":false}},{"type":"Feature","geometry":{"type":"Point","coordinates":[-0.29499998688697815,39.90399932861328]},"properties":{"detected_at":"2026-07-28T02:36:00.000Z","frp_mw":1.61,"inside_area_of_interest":false}},{"type":"Feature","geometry":{"type":"Point","coordinates":[-0.2930000126361847,39.8849983215332]},"properties":{"detected_at":"2026-07-28T02:36:00.000Z","frp_mw":1.07,"inside_area_of_interest":false}},{"type":"Feature","geometry":{"type":"Point","coordinates":[-0.29100000858306885,39.95199966430664]},"properties":{"detected_at":"2026-07-28T02:36:00.000Z","frp_mw":6.47,"inside_area_of_interest":false}},{"type":"Feature","geometry":{"type":"Point","coordinates":[-0.2879999876022339,39.88399887084961]},"properties":{"detected_at":"2026-07-28T02:36:00.000Z","frp_mw":1.07,"inside_area_of_interest":false}},{"type":"Feature","geometry":{"type":"Point","coordinates":[-0.28600001335144043,39.95100021362305]},"properties":{"detected_at":"2026-07-28T02:36:00.000Z","frp_mw":6.47,"inside_area_of_interest":false}},{"type":"Feature","geometry":{"type":"Point","coordinates":[-0.2840000092983246,39.861000061035156]},"properties":{"detected_at":"2026-07-28T02:36:00.000Z","frp_mw":0.84,"inside_area_of_interest":false}},{"type":"Feature","geometry":{"type":"Point","coordinates":[-0.28299999237060547,39.882999420166016]},"properties":{"detected_at":"2026-07-28T02:36:00.000Z","frp_mw":0.73,"inside_area_of_interest":false}},{"type":"Feature","geometry":{"type":"Point","coordinates":[-0.28200000524520874,39.94900131225586]},"properties":{"detected_at":"2026-07-28T02:36:00.000Z","frp_mw":2.26,"inside_area_of_interest":false}},{"type":"Feature","geometry":{"type":"Point","coordinates":[-0.2759999930858612,39.948001861572266]},"properties":{"detected_at":"2026-07-28T02:36:00.000Z","frp_mw":2.26,"inside_area_of_interest":false}},{"type":"Feature","geometry":{"type":"Point","coordinates":[-0.2669999897480011,39.856998443603516]},"properties":{"detected_at":"2026-07-28T02:36:00.000Z","frp_mw":1.2,"inside_area_of_interest":false}},{"type":"Feature","geometry":{"type":"Point","coordinates":[-0.22100000083446503,39.922000885009766]},"properties":{"detected_at":"2026-07-28T02:36:00.000Z","frp_mw":1.15,"inside_area_of_interest":false}},{"type":"Feature","geometry":{"type":"Point","coordinates":[-0.3269999921321869,39.91400146484375]},"properties":{"detected_at":"2026-07-28T02:53:00.000Z","frp_mw":1.31,"inside_area_of_interest":false}},{"type":"Feature","geometry":{"type":"Point","coordinates":[-0.32100000977516174,39.90599822998047]},"properties":{"detected_at":"2026-07-28T02:53:00.000Z","frp_mw":3.63,"inside_area_of_interest":false}},{"type":"Feature","geometry":{"type":"Point","coordinates":[-0.3179999887943268,39.89899826049805]},"properties":{"detected_at":"2026-07-28T02:53:00.000Z","frp_mw":1.34,"inside_area_of_interest":false}},{"type":"Feature","geometry":{"type":"Point","coordinates":[-0.3160000145435333,39.90399932861328]},"properties":{"detected_at":"2026-07-28T02:53:00.000Z","frp_mw":5.43,"inside_area_of_interest":false}},{"type":"Feature","geometry":{"type":"Point","coordinates":[-0.3109999895095825,39.90299987792969]},"properties":{"detected_at":"2026-07-28T02:53:00.000Z","frp_mw":5.43,"inside_area_of_interest":false}},{"type":"Feature","geometry":{"type":"Point","coordinates":[-0.3089999854564667,39.87099838256836]},"properties":{"detected_at":"2026-07-28T02:53:00.000Z","frp_mw":0.42,"inside_area_of_interest":false}},{"type":"Feature","geometry":{"type":"Point","coordinates":[-0.296999990940094,39.904998779296875]},"properties":{"detected_at":"2026-07-28T02:53:00.000Z","frp_mw":2.77,"inside_area_of_interest":false}},{"type":"Feature","geometry":{"type":"Point","coordinates":[-0.2930000126361847,39.8849983215332]},"properties":{"detected_at":"2026-07-28T02:53:00.000Z","frp_mw":1.48,"inside_area_of_interest":false}},{"type":"Feature","geometry":{"type":"Point","coordinates":[-0.29100000858306885,39.952999114990234]},"properties":{"detected_at":"2026-07-28T02:53:00.000Z","frp_mw":3.16,"inside_area_of_interest":false}},{"type":"Feature","geometry":{"type":"Point","coordinates":[-0.289000004529953,39.948001861572266]},"properties":{"detected_at":"2026-07-28T02:53:00.000Z","frp_mw":2.63,"inside_area_of_interest":false}},{"type":"Feature","geometry":{"type":"Point","coordinates":[-0.289000004529953,39.95399856567383]},"properties":{"detected_at":"2026-07-28T02:53:00.000Z","frp_mw":2.63,"inside_area_of_interest":false}},{"type":"Feature","geometry":{"type":"Point","coordinates":[-0.2879999876022339,39.88399887084961]},"properties":{"detected_at":"2026-07-28T02:53:00.000Z","frp_mw":1.24,"inside_area_of_interest":false}},{"type":"Feature","geometry":{"type":"Point","coordinates":[-0.28700000047683716,39.95199966430664]},"properties":{"detected_at":"2026-07-28T02:53:00.000Z","frp_mw":2.6,"inside_area_of_interest":false}},{"type":"Feature","geometry":{"type":"Point","coordinates":[-0.28200000524520874,39.95000076293945]},"properties":{"detected_at":"2026-07-28T02:53:00.000Z","frp_mw":2.6,"inside_area_of_interest":false}},{"type":"Feature","geometry":{"type":"Point","coordinates":[-0.27900001406669617,39.95100021362305]},"properties":{"detected_at":"2026-07-28T02:53:00.000Z","frp_mw":2.77,"inside_area_of_interest":false}},{"type":"Feature","geometry":{"type":"Point","coordinates":[-0.2770000100135803,39.94900131225586]},"properties":{"detected_at":"2026-07-28T02:53:00.000Z","frp_mw":2.07,"inside_area_of_interest":false}},{"type":"Feature","geometry":{"type":"Point","coordinates":[-0.2680000066757202,39.85900115966797]},"properties":{"detected_at":"2026-07-28T02:53:00.000Z","frp_mw":1.09,"inside_area_of_interest":false}},{"type":"Feature","geometry":{"type":"Point","coordinates":[-0.26600000262260437,39.856998443603516]},"properties":{"detected_at":"2026-07-28T02:53:00.000Z","frp_mw":0.95,"inside_area_of_interest":false}},{"type":"Feature","geometry":{"type":"Point","coordinates":[-0.33899998664855957,39.9119987487793]},"properties":{"detected_at":"2026-07-28T12:17:00.000Z","frp_mw":4.21,"inside_area_of_interest":false}},{"type":"Feature","geometry":{"type":"Point","coordinates":[-0.335999995470047,39.90700149536133]},"properties":{"detected_at":"2026-07-28T12:17:00.000Z","frp_mw":13.13,"inside_area_of_interest":false}},{"type":"Feature","geometry":{"type":"Point","coordinates":[-0.33500000834465027,39.91299819946289]},"properties":{"detected_at":"2026-07-28T12:17:00.000Z","frp_mw":7.99,"inside_area_of_interest":false}},{"type":"Feature","geometry":{"type":"Point","coordinates":[-0.33399999141693115,39.91899871826172]},"properties":{"detected_at":"2026-07-28T12:17:00.000Z","frp_mw":7.99,"inside_area_of_interest":false}},{"type":"Feature","geometry":{"type":"Point","coordinates":[-0.3319999873638153,39.90800094604492]},"properties":{"detected_at":"2026-07-28T12:17:00.000Z","frp_mw":44.73,"inside_area_of_interest":false}},{"type":"Feature","geometry":{"type":"Point","coordinates":[-0.33000001311302185,39.91400146484375]},"properties":{"detected_at":"2026-07-28T12:17:00.000Z","frp_mw":7.99,"inside_area_of_interest":false}},{"type":"Feature","geometry":{"type":"Point","coordinates":[-0.32899999618530273,39.91999816894531]},"properties":{"detected_at":"2026-07-28T12:17:00.000Z","frp_mw":11.08,"inside_area_of_interest":false}},{"type":"Feature","geometry":{"type":"Point","coordinates":[-0.3269999921321869,39.909000396728516]},"properties":{"detected_at":"2026-07-28T12:17:00.000Z","frp_mw":44.73,"inside_area_of_interest":false}},{"type":"Feature","geometry":{"type":"Point","coordinates":[-0.32600000500679016,39.915000915527344]},"properties":{"detected_at":"2026-07-28T12:17:00.000Z","frp_mw":11.08,"inside_area_of_interest":false}},{"type":"Feature","geometry":{"type":"Point","coordinates":[-0.32499998807907104,39.92100143432617]},"properties":{"detected_at":"2026-07-28T12:17:00.000Z","frp_mw":11.08,"inside_area_of_interest":false}},{"type":"Feature","geometry":{"type":"Point","coordinates":[-0.32100000977516174,39.92300033569336]},"properties":{"detected_at":"2026-07-28T12:17:00.000Z","frp_mw":9.62,"inside_area_of_interest":false}},{"type":"Feature","geometry":{"type":"Point","coordinates":[-0.3179999887943268,39.900001525878906]},"properties":{"detected_at":"2026-07-28T12:17:00.000Z","frp_mw":3.83,"inside_area_of_interest":false}},{"type":"Feature","geometry":{"type":"Point","coordinates":[-0.29100000858306885,39.95399856567383]},"properties":{"detected_at":"2026-07-28T12:17:00.000Z","frp_mw":5,"inside_area_of_interest":false}},{"type":"Feature","geometry":{"type":"Point","coordinates":[-0.28600001335144043,39.882999420166016]},"properties":{"detected_at":"2026-07-28T12:17:00.000Z","frp_mw":3.09,"inside_area_of_interest":false}},{"type":"Feature","geometry":{"type":"Point","coordinates":[-0.2840000092983246,39.9010009765625]},"properties":{"detected_at":"2026-07-28T12:17:00.000Z","frp_mw":24.63,"inside_area_of_interest":false}},{"type":"Feature","geometry":{"type":"Point","coordinates":[-0.28299999237060547,39.88100051879883]},"properties":{"detected_at":"2026-07-28T12:17:00.000Z","frp_mw":4.71,"inside_area_of_interest":false}},{"type":"Feature","geometry":{"type":"Point","coordinates":[-0.28299999237060547,39.95000076293945]},"properties":{"detected_at":"2026-07-28T12:17:00.000Z","frp_mw":5,"inside_area_of_interest":false}},{"type":"Feature","geometry":{"type":"Point","coordinates":[-0.28299999237060547,39.895999908447266]},"properties":{"detected_at":"2026-07-28T12:17:00.000Z","frp_mw":24.63,"inside_area_of_interest":false}},{"type":"Feature","geometry":{"type":"Point","coordinates":[-0.28299999237060547,39.89799880981445]},"properties":{"detected_at":"2026-07-28T12:17:00.000Z","frp_mw":42.64,"inside_area_of_interest":false}},{"type":"Feature","geometry":{"type":"Point","coordinates":[-0.2800000011920929,39.902000427246094]},"properties":{"detected_at":"2026-07-28T12:17:00.000Z","frp_mw":24.63,"inside_area_of_interest":false}},{"type":"Feature","geometry":{"type":"Point","coordinates":[-0.27900001406669617,39.89699935913086]},"properties":{"detected_at":"2026-07-28T12:17:00.000Z","frp_mw":24.63,"inside_area_of_interest":false}},{"type":"Feature","geometry":{"type":"Point","coordinates":[-0.27799999713897705,39.89899826049805]},"properties":{"detected_at":"2026-07-28T12:17:00.000Z","frp_mw":42.64,"inside_area_of_interest":false}},{"type":"Feature","geometry":{"type":"Point","coordinates":[-0.2770000100135803,39.89400100708008]},"properties":{"detected_at":"2026-07-28T12:17:00.000Z","frp_mw":42.64,"inside_area_of_interest":false}},{"type":"Feature","geometry":{"type":"Point","coordinates":[-0.2770000100135803,39.89099884033203]},"properties":{"detected_at":"2026-07-28T12:17:00.000Z","frp_mw":8.95,"inside_area_of_interest":false}},{"type":"Feature","geometry":{"type":"Point","coordinates":[-0.27399998903274536,39.89799880981445]},"properties":{"detected_at":"2026-07-28T12:17:00.000Z","frp_mw":42.4,"inside_area_of_interest":false}},{"type":"Feature","geometry":{"type":"Point","coordinates":[-0.27399998903274536,39.9010009765625]},"properties":{"detected_at":"2026-07-28T12:17:00.000Z","frp_mw":31.31,"inside_area_of_interest":false}},{"type":"Feature","geometry":{"type":"Point","coordinates":[-0.27300000190734863,39.89500045776367]},"properties":{"detected_at":"2026-07-28T12:17:00.000Z","frp_mw":31.31,"inside_area_of_interest":false}},{"type":"Feature","geometry":{"type":"Point","coordinates":[-0.27300000190734863,39.893001556396484]},"properties":{"detected_at":"2026-07-28T12:17:00.000Z","frp_mw":13.41,"inside_area_of_interest":false}},{"type":"Feature","geometry":{"type":"Point","coordinates":[-0.27000001072883606,39.89899826049805]},"properties":{"detected_at":"2026-07-28T12:17:00.000Z","frp_mw":42.4,"inside_area_of_interest":false}},{"type":"Feature","geometry":{"type":"Point","coordinates":[-0.26899999380111694,39.89400100708008]},"properties":{"detected_at":"2026-07-28T12:17:00.000Z","frp_mw":13.41,"inside_area_of_interest":false}},{"type":"Feature","geometry":{"type":"Point","coordinates":[-0.26899999380111694,39.895999908447266]},"properties":{"detected_at":"2026-07-28T12:17:00.000Z","frp_mw":31.31,"inside_area_of_interest":false}},{"type":"Feature","geometry":{"type":"Point","coordinates":[-0.26600000262260437,39.900001525878906]},"properties":{"detected_at":"2026-07-28T12:17:00.000Z","frp_mw":7.62,"inside_area_of_interest":false}},{"type":"Feature","geometry":{"type":"Point","coordinates":[-0.33399999141693115,39.909000396728516]},"properties":{"detected_at":"2026-07-28T12:38:00.000Z","frp_mw":22.92,"inside_area_of_interest":false}},{"type":"Feature","geometry":{"type":"Point","coordinates":[-0.3310000002384186,39.917999267578125]},"properties":{"detected_at":"2026-07-28T12:38:00.000Z","frp_mw":9.61,"inside_area_of_interest":false}},{"type":"Feature","geometry":{"type":"Point","coordinates":[-0.32899999618530273,39.91400146484375]},"properties":{"detected_at":"2026-07-28T12:38:00.000Z","frp_mw":23.54,"inside_area_of_interest":false}},{"type":"Feature","geometry":{"type":"Point","coordinates":[-0.328000009059906,39.9109992980957]},"properties":{"detected_at":"2026-07-28T12:38:00.000Z","frp_mw":23.54,"inside_area_of_interest":false}},{"type":"Feature","geometry":{"type":"Point","coordinates":[-0.32600000500679016,39.92300033569336]},"properties":{"detected_at":"2026-07-28T12:38:00.000Z","frp_mw":9.61,"inside_area_of_interest":false}},{"type":"Feature","geometry":{"type":"Point","coordinates":[-0.32600000500679016,39.90700149536133]},"properties":{"detected_at":"2026-07-28T12:38:00.000Z","frp_mw":30.22,"inside_area_of_interest":false}},{"type":"Feature","geometry":{"type":"Point","coordinates":[-0.32499998807907104,39.91899871826172]},"properties":{"detected_at":"2026-07-28T12:38:00.000Z","frp_mw":9.61,"inside_area_of_interest":false}},{"type":"Feature","geometry":{"type":"Point","coordinates":[-0.3179999887943268,39.92100143432617]},"properties":{"detected_at":"2026-07-28T12:38:00.000Z","frp_mw":6.21,"inside_area_of_interest":false}},{"type":"Feature","geometry":{"type":"Point","coordinates":[-0.31700000166893005,39.900001525878906]},"properties":{"detected_at":"2026-07-28T12:38:00.000Z","frp_mw":6.39,"inside_area_of_interest":false}},{"type":"Feature","geometry":{"type":"Point","coordinates":[-0.3160000145435333,39.89699935913086]},"properties":{"detected_at":"2026-07-28T12:38:00.000Z","frp_mw":6.39,"inside_area_of_interest":false}},{"type":"Feature","geometry":{"type":"Point","coordinates":[-0.3109999895095825,39.902000427246094]},"properties":{"detected_at":"2026-07-28T12:38:00.000Z","frp_mw":7.02,"inside_area_of_interest":false}},{"type":"Feature","geometry":{"type":"Point","coordinates":[-0.289000004529953,39.95100021362305]},"properties":{"detected_at":"2026-07-28T12:38:00.000Z","frp_mw":13.53,"inside_area_of_interest":false}},{"type":"Feature","geometry":{"type":"Point","coordinates":[-0.28299999237060547,39.89500045776367]},"properties":{"detected_at":"2026-07-28T12:38:00.000Z","frp_mw":50.94,"inside_area_of_interest":false}},{"type":"Feature","geometry":{"type":"Point","coordinates":[-0.28200000524520874,39.94900131225586]},"properties":{"detected_at":"2026-07-28T12:38:00.000Z","frp_mw":12.7,"inside_area_of_interest":false}},{"type":"Feature","geometry":{"type":"Point","coordinates":[-0.27799999713897705,39.9010009765625]},"properties":{"detected_at":"2026-07-28T12:38:00.000Z","frp_mw":50.94,"inside_area_of_interest":false}},{"type":"Feature","geometry":{"type":"Point","coordinates":[-0.2770000100135803,39.89699935913086]},"properties":{"detected_at":"2026-07-28T12:38:00.000Z","frp_mw":50.94,"inside_area_of_interest":false}},{"type":"Feature","geometry":{"type":"Point","coordinates":[-0.2750000059604645,39.893001556396484]},"properties":{"detected_at":"2026-07-28T12:38:00.000Z","frp_mw":78.54,"inside_area_of_interest":false}},{"type":"Feature","geometry":{"type":"Point","coordinates":[-0.27000001072883606,39.89799880981445]},"properties":{"detected_at":"2026-07-28T12:38:00.000Z","frp_mw":3.84,"inside_area_of_interest":false}},{"type":"Feature","geometry":{"type":"Point","coordinates":[-0.26899999380111694,39.89400100708008]},"properties":{"detected_at":"2026-07-28T12:38:00.000Z","frp_mw":27.64,"inside_area_of_interest":false}},{"type":"Feature","geometry":{"type":"Point","coordinates":[-0.2639999985694885,39.89899826049805]},"properties":{"detected_at":"2026-07-28T12:38:00.000Z","frp_mw":3.84,"inside_area_of_interest":false}},{"type":"Feature","geometry":{"type":"Point","coordinates":[-0.3310000002384186,39.90999984741211]},"properties":{"detected_at":"2026-07-28T13:57:00.000Z","frp_mw":5.02,"inside_area_of_interest":false}},{"type":"Feature","geometry":{"type":"Point","coordinates":[-0.33000001311302185,39.915000915527344]},"properties":{"detected_at":"2026-07-28T13:57:00.000Z","frp_mw":5.02,"inside_area_of_interest":false}},{"type":"Feature","geometry":{"type":"Point","coordinates":[-0.33000001311302185,39.92100143432617]},"properties":{"detected_at":"2026-07-28T13:57:00.000Z","frp_mw":3.38,"inside_area_of_interest":false}},{"type":"Feature","geometry":{"type":"Point","coordinates":[-0.32600000500679016,39.90399932861328]},"properties":{"detected_at":"2026-07-28T13:57:00.000Z","frp_mw":4.01,"inside_area_of_interest":false}},{"type":"Feature","geometry":{"type":"Point","coordinates":[-0.3190000057220459,39.89799880981445]},"properties":{"detected_at":"2026-07-28T13:57:00.000Z","frp_mw":4.01,"inside_area_of_interest":false}},{"type":"Feature","geometry":{"type":"Point","coordinates":[-0.3190000057220459,39.92100143432617]},"properties":{"detected_at":"2026-07-28T13:57:00.000Z","frp_mw":5.77,"inside_area_of_interest":false}},{"type":"Feature","geometry":{"type":"Point","coordinates":[-0.3149999976158142,39.89799880981445]},"properties":{"detected_at":"2026-07-28T13:57:00.000Z","frp_mw":4.7,"inside_area_of_interest":false}},{"type":"Feature","geometry":{"type":"Point","coordinates":[-0.3149999976158142,39.89899826049805]},"properties":{"detected_at":"2026-07-28T13:57:00.000Z","frp_mw":4.61,"inside_area_of_interest":false}},{"type":"Feature","geometry":{"type":"Point","coordinates":[-0.3109999895095825,39.90399932861328]},"properties":{"detected_at":"2026-07-28T13:57:00.000Z","frp_mw":4.7,"inside_area_of_interest":false}},{"type":"Feature","geometry":{"type":"Point","coordinates":[-0.3100000023841858,39.89799880981445]},"properties":{"detected_at":"2026-07-28T13:57:00.000Z","frp_mw":4.7,"inside_area_of_interest":false}},{"type":"Feature","geometry":{"type":"Point","coordinates":[-0.3100000023841858,39.904998779296875]},"properties":{"detected_at":"2026-07-28T13:57:00.000Z","frp_mw":4.61,"inside_area_of_interest":false}},{"type":"Feature","geometry":{"type":"Point","coordinates":[-0.3100000023841858,39.89899826049805]},"properties":{"detected_at":"2026-07-28T13:57:00.000Z","frp_mw":4.61,"inside_area_of_interest":false}},{"type":"Feature","geometry":{"type":"Point","coordinates":[-0.28700000047683716,39.89899826049805]},"properties":{"detected_at":"2026-07-28T13:57:00.000Z","frp_mw":3.13,"inside_area_of_interest":false}},{"type":"Feature","geometry":{"type":"Point","coordinates":[-0.28600001335144043,39.900001525878906]},"properties":{"detected_at":"2026-07-28T13:57:00.000Z","frp_mw":2.95,"inside_area_of_interest":false}},{"type":"Feature","geometry":{"type":"Point","coordinates":[-0.2849999964237213,39.94599914550781]},"properties":{"detected_at":"2026-07-28T13:57:00.000Z","frp_mw":6.26,"inside_area_of_interest":false}},{"type":"Feature","geometry":{"type":"Point","coordinates":[-0.28299999237060547,39.95199966430664]},"properties":{"detected_at":"2026-07-28T13:57:00.000Z","frp_mw":6.26,"inside_area_of_interest":false}},{"type":"Feature","geometry":{"type":"Point","coordinates":[-0.28200000524520874,39.900001525878906]},"properties":{"detected_at":"2026-07-28T13:57:00.000Z","frp_mw":4.33,"inside_area_of_interest":false}},{"type":"Feature","geometry":{"type":"Point","coordinates":[-0.2809999883174896,39.89400100708008]},"properties":{"detected_at":"2026-07-28T13:57:00.000Z","frp_mw":10.97,"inside_area_of_interest":false}},{"type":"Feature","geometry":{"type":"Point","coordinates":[-0.2800000011920929,39.89400100708008]},"properties":{"detected_at":"2026-07-28T13:57:00.000Z","frp_mw":11.6,"inside_area_of_interest":false}},{"type":"Feature","geometry":{"type":"Point","coordinates":[-0.2750000059604645,39.88800048828125]},"properties":{"detected_at":"2026-07-28T13:57:00.000Z","frp_mw":10.97,"inside_area_of_interest":false}},{"type":"Feature","geometry":{"type":"Point","coordinates":[-0.2750000059604645,39.89400100708008]},"properties":{"detected_at":"2026-07-28T13:57:00.000Z","frp_mw":10.97,"inside_area_of_interest":false}},{"type":"Feature","geometry":{"type":"Point","coordinates":[-0.27399998903274536,39.89500045776367]},"properties":{"detected_at":"2026-07-28T13:57:00.000Z","frp_mw":11.6,"inside_area_of_interest":false}},{"type":"Feature","geometry":{"type":"Point","coordinates":[-0.27399998903274536,39.888999938964844]},"properties":{"detected_at":"2026-07-28T13:57:00.000Z","frp_mw":11.6,"inside_area_of_interest":false}},{"type":"Feature","geometry":{"type":"Point","coordinates":[-0.27000001072883606,39.89400100708008]},"properties":{"detected_at":"2026-07-28T13:57:00.000Z","frp_mw":13.79,"inside_area_of_interest":false}},{"type":"Feature","geometry":{"type":"Point","coordinates":[-0.26899999380111694,39.888999938964844]},"properties":{"detected_at":"2026-07-28T13:57:00.000Z","frp_mw":13.79,"inside_area_of_interest":false}},{"type":"Feature","geometry":{"type":"Point","coordinates":[-0.26899999380111694,39.89500045776367]},"properties":{"detected_at":"2026-07-28T13:57:00.000Z","frp_mw":11.33,"inside_area_of_interest":false}},{"type":"Feature","geometry":{"type":"Point","coordinates":[-0.26899999380111694,39.888999938964844]},"properties":{"detected_at":"2026-07-28T13:57:00.000Z","frp_mw":11.33,"inside_area_of_interest":false}},{"type":"Feature","geometry":{"type":"Point","coordinates":[-0.2590000033378601,39.882999420166016]},"properties":{"detected_at":"2026-07-28T13:57:00.000Z","frp_mw":2.85,"inside_area_of_interest":false}},{"type":"Feature","geometry":{"type":"Point","coordinates":[-0.257999986410141,39.88399887084961]},"properties":{"detected_at":"2026-07-28T13:57:00.000Z","frp_mw":3.46,"inside_area_of_interest":false}},{"type":"Feature","geometry":{"type":"Point","coordinates":[-0.2540000081062317,39.9010009765625]},"properties":{"detected_at":"2026-07-28T13:57:00.000Z","frp_mw":1.37,"inside_area_of_interest":false}},{"type":"Feature","geometry":{"type":"Point","coordinates":[-0.2529999911785126,39.9010009765625]},"properties":{"detected_at":"2026-07-28T13:57:00.000Z","frp_mw":1.82,"inside_area_of_interest":false}}]}
