{"type":"FeatureCollection","source_url":"https://www.google.com/maps/d/kml?mid=1tqpTAqEbdQr_F5Pq8YIQU8QlpNsNeXk&forcekml=1","features":[{"type":"Feature","properties":{"name":"Sant Francesc"},"geometry":{"type":"Polygon","coordinates":[[[-0.248715,39.9490193],[-0.2482537,39.9480076],[-0.2475885,39.9477115],[-0.2479533,39.9468725],[-0.2487043,39.9459102],[-0.2476636,39.9453426],[-0.2473203,39.945721],[-0.2469448,39.9471111],[-0.2462152,39.9469959],[-0.2461187,39.9474565],[-0.2452925,39.9472344],[-0.2451638,39.9470288],[-0.244402,39.9468479],[-0.2443806,39.9473989],[-0.2447776,39.9475963],[-0.245668,39.9479171],[-0.2447346,39.9489535],[-0.2453355,39.9492167],[-0.2466444,39.9480569],[-0.2472988,39.9484846],[-0.2461187,39.9497759],[-0.248715,39.9490193]]]}}]}
